[{"OBJECT_NAME":"GPS BIIF-7  (PRN 09)","OBJECT_ID":"2014-045A","EPOCH":"2026-04-05T06:11:39.428736","MEAN_MOTION":2.00553703,"ECCENTRICITY":0.00314007,"INCLINATION":55.3047,"RA_OF_ASC_NODE":91.3685,"ARG_OF_PERICENTER":119.7721,"MEAN_ANOMALY":240.5476,"EPHEMERIS_TYPE":0,"CLASSIFICATION_TYPE":"U","NORAD_CAT_ID":40105,"ELEMENT_SET_NO":999,"REV_AT_EPOCH":8461,"BSTAR":0,"MEAN_MOTION_DOT":2.0e-8,"MEAN_MOTION_DDOT":0},{"OBJECT_NAME":"GPS BIIF-8  (PRN 03)","OBJECT_ID":"2014-068A","EPOCH":"2026-04-05T03:12:35.771904","MEAN_MOTION":2.00571865,"ECCENTRICITY":0.00643004,"INCLINATION":56.9408,"RA_OF_ASC_NODE":33.7696,"ARG_OF_PERICENTER":68.3893,"MEAN_ANOMALY":292.2824,"EPHEMERIS_TYPE":0,"CLASSIFICATION_TYPE":"U","NORAD_CAT_ID":40294,"ELEMENT_SET_NO":999,"REV_AT_EPOCH":8374,"BSTAR":0,"MEAN_MOTION_DOT":-8.3e-7,"MEAN_MOTION_DDOT":0},{"OBJECT_NAME":"GPS BIIF-9  (PRN 26)","OBJECT_ID":"2015-013A","EPOCH":"2026-04-05T06:24:09.814464","MEAN_MOTION":2.00555791,"ECCENTRICITY":0.0108819,"INCLINATION":53.179,"RA_OF_ASC_NODE":207.1929,"ARG_OF_PERICENTER":39.9408,"MEAN_ANOMALY":320.8559,"EPHEMERIS_TYPE":0,"CLASSIFICATION_TYPE":"U","NORAD_CAT_ID":40534,"ELEMENT_SET_NO":999,"REV_AT_EPOCH":8036,"BSTAR":0,"MEAN_MOTION_DOT":6.0e-8,"MEAN_MOTION_DDOT":0},{"OBJECT_NAME":"GPS BIIF-10 (PRN 08)","OBJECT_ID":"2015-033A","EPOCH":"2026-04-05T10:14:25.023264","MEAN_MOTION":2.00560124,"ECCENTRICITY":0.01149439,"INCLINATION":54.0409,"RA_OF_ASC_NODE":270.0842,"ARG_OF_PERICENTER":29.596,"MEAN_ANOMALY":331.0219,"EPHEMERIS_TYPE":0,"CLASSIFICATION_TYPE":"U","NORAD_CAT_ID":40730,"ELEMENT_SET_NO":999,"REV_AT_EPOCH":7853,"BSTAR":0,"MEAN_MOTION_DOT":-1.4e-7,"MEAN_MOTION_DDOT":0},{"OBJECT_NAME":"GPS BIIF-11 (PRN 10)","OBJECT_ID":"2015-062A","EPOCH":"2026-04-04T23:40:27.177888","MEAN_MOTION":2.00567188,"ECCENTRICITY":0.0111285,"INCLINATION":56.9136,"RA_OF_ASC_NODE":33.6315,"ARG_OF_PERICENTER":231.593,"MEAN_ANOMALY":127.395,"EPHEMERIS_TYPE":0,"CLASSIFICATION_TYPE":"U","NORAD_CAT_ID":41019,"ELEMENT_SET_NO":999,"REV_AT_EPOCH":7636,"BSTAR":0,"MEAN_MOTION_DOT":-8.4e-7,"MEAN_MOTION_DDOT":0},{"OBJECT_NAME":"GPS BIIF-12 (PRN 32)","OBJECT_ID":"2016-007A","EPOCH":"2026-04-05T01:45:21.101760","MEAN_MOTION":2.00555323,"ECCENTRICITY":0.0095997,"INCLINATION":55.4776,"RA_OF_ASC_NODE":92.3566,"ARG_OF_PERICENTER":246.7403,"MEAN_ANOMALY":112.2545,"EPHEMERIS_TYPE":0,"CLASSIFICATION_TYPE":"U","NORAD_CAT_ID":41328,"ELEMENT_SET_NO":999,"REV_AT_EPOCH":7437,"BSTAR":0,"MEAN_MOTION_DOT":3.0e-8,"MEAN_MOTION_DDOT":0},{"OBJECT_NAME":"GPS BIII-1  (PRN 04)","OBJECT_ID":"2018-109A","EPOCH":"2026-04-05T11:03:03.662784","MEAN_MOTION":2.00558463,"ECCENTRICITY":0.003801,"INCLINATION":55.6371,"RA_OF_ASC_NODE":95.054,"ARG_OF_PERICENTER":198.8972,"MEAN_ANOMALY":333.4266,"EPHEMERIS_TYPE":0,"CLASSIFICATION_TYPE":"U","NORAD_CAT_ID":43873,"ELEMENT_SET_NO":999,"REV_AT_EPOCH":5361,"BSTAR":0,"MEAN_MOTION_DOT":8.0e-8,"MEAN_MOTION_DDOT":0},{"OBJECT_NAME":"GPS BIII-2  (PRN 18)","OBJECT_ID":"2019-056A","EPOCH":"2026-04-05T02:21:03.997152","MEAN_MOTION":2.00569081,"ECCENTRICITY":0.00587645,"INCLINATION":55.6701,"RA_OF_ASC_NODE":334.049,"ARG_OF_PERICENTER":197.6004,"MEAN_ANOMALY":334.4346,"EPHEMERIS_TYPE":0,"CLASSIFICATION_TYPE":"U","NORAD_CAT_ID":44506,"ELEMENT_SET_NO":999,"REV_AT_EPOCH":4860,"BSTAR":0,"MEAN_MOTION_DOT":-9.0e-7,"MEAN_MOTION_DDOT":0},{"OBJECT_NAME":"GPS BIII-3  (PRN 23)","OBJECT_ID":"2020-041A","EPOCH":"2026-04-04T16:39:43.206048","MEAN_MOTION":2.00560344,"ECCENTRICITY":0.00617895,"INCLINATION":56.6255,"RA_OF_ASC_NODE":31.7951,"ARG_OF_PERICENTER":205.1546,"MEAN_ANOMALY":336.5424,"EPHEMERIS_TYPE":0,"CLASSIFICATION_TYPE":"U","NORAD_CAT_ID":45854,"ELEMENT_SET_NO":999,"REV_AT_EPOCH":4256,"BSTAR":0,"MEAN_MOTION_DOT":-8.9e-7,"MEAN_MOTION_DDOT":0},{"OBJECT_NAME":"GPS BIII-4  (PRN 14)","OBJECT_ID":"2020-078A","EPOCH":"2026-04-04T23:50:48.490656","MEAN_MOTION":2.00565254,"ECCENTRICITY":0.00699327,"INCLINATION":53.9939,"RA_OF_ASC_NODE":213.7458,"ARG_OF_PERICENTER":205.1668,"MEAN_ANOMALY":166.7977,"EPHEMERIS_TYPE":0,"CLASSIFICATION_TYPE":"U","NORAD_CAT_ID":46826,"ELEMENT_SET_NO":999,"REV_AT_EPOCH":4004,"BSTAR":0,"MEAN_MOTION_DOT":5.0e-8,"MEAN_MOTION_DDOT":0},{"OBJECT_NAME":"GPS BIII-5  (PRN 11)","OBJECT_ID":"2021-054A","EPOCH":"2026-03-28T01:21:33.319296","MEAN_MOTION":2.00573996,"ECCENTRICITY":0.0023817,"INCLINATION":55.2101,"RA_OF_ASC_NODE":335.7223,"ARG_OF_PERICENTER":231.1961,"MEAN_ANOMALY":354.6747,"EPHEMERIS_TYPE":0,"CLASSIFICATION_TYPE":"U","NORAD_CAT_ID":48859,"ELEMENT_SET_NO":999,"REV_AT_EPOCH":3512,"BSTAR":0,"MEAN_MOTION_DOT":-8.8e-7,"MEAN_MOTION_DDOT":0},{"OBJECT_NAME":"GPS BIII-6  (PRN 28)","OBJECT_ID":"2023-009A","EPOCH":"2026-03-28T04:24:38.672352","MEAN_MOTION":2.00547447,"ECCENTRICITY":0.00053805,"INCLINATION":55.1104,"RA_OF_ASC_NODE":151.7031,"ARG_OF_PERICENTER":326.6502,"MEAN_ANOMALY":28.0595,"EPHEMERIS_TYPE":0,"CLASSIFICATION_TYPE":"U","NORAD_CAT_ID":55268,"ELEMENT_SET_NO":999,"REV_AT_EPOCH":2361,"BSTAR":0,"MEAN_MOTION_DOT":0,"MEAN_MOTION_DDOT":0},{"OBJECT_NAME":"GPS BIII-7  (PRN 01)","OBJECT_ID":"2024-242A","EPOCH":"2026-04-04T07:21:38.597472","MEAN_MOTION":2.0057043,"ECCENTRICITY":0.00165831,"INCLINATION":54.879,"RA_OF_ASC_NODE":337.1781,"ARG_OF_PERICENTER":1.2127,"MEAN_ANOMALY":180.4973,"EPHEMERIS_TYPE":0,"CLASSIFICATION_TYPE":"U","NORAD_CAT_ID":62339,"ELEMENT_SET_NO":999,"REV_AT_EPOCH":977,"BSTAR":0,"MEAN_MOTION_DOT":-9.5e-7,"MEAN_MOTION_DDOT":0},{"OBJECT_NAME":"GPS BIII-8  (PRN 21)","OBJECT_ID":"2025-116A","EPOCH":"2026-04-04T19:14:56.524704","MEAN_MOTION":2.00551336,"ECCENTRICITY":0.00089888,"INCLINATION":55.188,"RA_OF_ASC_NODE":34.0836,"ARG_OF_PERICENTER":331.9615,"MEAN_ANOMALY":31.0765,"EPHEMERIS_TYPE":0,"CLASSIFICATION_TYPE":"U","NORAD_CAT_ID":64202,"ELEMENT_SET_NO":999,"REV_AT_EPOCH":640,"BSTAR":0,"MEAN_MOTION_DOT":-8.7e-7,"MEAN_MOTION_DDOT":0},{"OBJECT_NAME":"GPS BIII-9  (PRN 20)","OBJECT_ID":"2026-017A","EPOCH":"2026-04-04T09:49:34.959360","MEAN_MOTION":2.00553521,"ECCENTRICITY":0.00244361,"INCLINATION":55.0405,"RA_OF_ASC_NODE":91.7145,"ARG_OF_PERICENTER":250.4586,"MEAN_ANOMALY":109.2865,"EPHEMERIS_TYPE":0,"CLASSIFICATION_TYPE":"U","NORAD_CAT_ID":67588,"ELEMENT_SET_NO":999,"REV_AT_EPOCH":43013,"BSTAR":0,"MEAN_MOTION_DOT":1.0e-8,"MEAN_MOTION_DDOT":0}]
